{
    "links": {
        "self": "http://www.neowsapp.com/rest/v1/neo/3550074?api_key=iIulBulltgU6a56xZRHN4H3l9WmuAYTsLGpBGhQ2"
    },
    "id": "3550074",
    "neo_reference_id": "3550074",
    "name": "(2010 UL7)",
    "designation": "2010 UL7",
    "nasa_jpl_url": "http://ssd.jpl.nasa.gov/sbdb.cgi?sstr=3550074",
    "absolute_magnitude_h": 21.6,
    "estimated_diameter": {
        "kilometers": {
            "estimated_diameter_min": 0.1272198785,
            "estimated_diameter_max": 0.2844722965
        },
        "meters": {
            "estimated_diameter_min": 127.2198785394,
            "estimated_diameter_max": 284.4722965033
        },
        "miles": {
            "estimated_diameter_min": 0.0790507431,
            "estimated_diameter_max": 0.1767628354
        },
        "feet": {
            "estimated_diameter_min": 417.3880663071,
            "estimated_diameter_max": 933.3080892598
        }
    },
    "is_potentially_hazardous_asteroid": false,
    "close_approach_data": [
        {
            "close_approach_date": "2010-10-25",
            "close_approach_date_full": "2010-Oct-25 00:21",
            "epoch_date_close_approach": 1287966060000,
            "relative_velocity": {
                "kilometers_per_second": "12.8063340194",
                "kilometers_per_hour": "46102.8024700128",
                "miles_per_hour": "28646.4885681032"
            },
            "miss_distance": {
                "astronomical": "0.2703823626",
                "lunar": "105.1787390514",
                "kilometers": "40448625.530527662",
                "miles": "25133610.4436672556"
            },
            "orbiting_body": "Earth"
        }
    ],
    "orbital_data": {
        "orbit_id": "7",
        "orbit_determination_date": "2017-04-06 08:56:07",
        "first_observation_date": "2010-10-28",
        "last_observation_date": "2010-11-04",
        "data_arc_in_days": 7,
        "observations_used": 37,
        "orbit_uncertainty": "8",
        "minimum_orbit_intersection": ".246263",
        "jupiter_tisserand_invariant": "2.828",
        "epoch_osculation": "2455500.5",
        "eccentricity": ".6007815676539541",
        "semi_major_axis": "3.077882347432491",
        "inclination": "22.34629117428615",
        "ascending_node_longitude": "39.6798859692772",
        "orbital_period": "1972.31577866265",
        "perihelion_distance": "1.228747365687567",
        "perihelion_argument": "343.6879015982951",
        "aphelion_distance": "4.927017329177415",
        "perihelion_time": "2455479.861665434810",
        "mean_anomaly": "3.767044062541677",
        "mean_motion": ".1825265527430409",
        "equinox": "J2000",
        "orbit_class": {
            "orbit_class_type": "AMO",
            "orbit_class_description": "Near-Earth asteroid orbits similar to that of 1221 Amor",
            "orbit_class_range": "1.017 AU < q (perihelion) < 1.3 AU"
        }
    },
    "is_sentry_object": false
}